[{"OBJECT_NAME":"STARLINK-5129","OBJECT_ID":"2022-125AS","EPOCH":"2026-03-09T16:00:51.698592","MEAN_MOTION":15.08841133,"ECCENTRICITY":0.00012676,"INCLINATION":53.2163,"RA_OF_ASC_NODE":213.9052,"ARG_OF_PERICENTER":84.1601,"MEAN_ANOMALY":275.9536,"EPHEMERIS_TYPE":0,"CLASSIFICATION_TYPE":"U","NORAD_CAT_ID":54004,"ELEMENT_SET_NO":999,"REV_AT_EPOCH":18946,"BSTAR":2.1352404e-5,"MEAN_MOTION_DOT":5.2e-7,"MEAN_MOTION_DDOT":0},{"OBJECT_NAME":"COSMOS 2058","OBJECT_ID":"1990-010A","EPOCH":"2026-03-09T23:30:01.891584","MEAN_MOTION":15.11324867,"ECCENTRICITY":0.00093159,"INCLINATION":82.4669,"RA_OF_ASC_NODE":47.1427,"ARG_OF_PERICENTER":343.3032,"MEAN_ANOMALY":16.789,"EPHEMERIS_TYPE":0,"CLASSIFICATION_TYPE":"U","NORAD_CAT_ID":20465,"ELEMENT_SET_NO":999,"REV_AT_EPOCH":94228,"BSTAR":0.00029943939,"MEAN_MOTION_DOT":5.077e-5,"MEAN_MOTION_DDOT":0}]
